CELESTIS-02             
1 25160U 98007D   16097.55580720 -.00000036  00000-0  41725-4 0  9996
2 25160 107.9462  36.6012 0062097  27.4888  62.0780 14.21424375941510
CELESTIS-03             
1 26034U 99070C   16097.52922334  .00004000  00000-0  29264-3 0  9993
2 26034  98.2954 251.4919 0014815 176.4535 183.6797 15.04166716879759
